ORBCOMM FM05            
1 25117U 97084F   25249.67000664  .00002202  00000+0  65008-3 0  9992
2 25117  45.0158 336.7621 0004216 248.6919 111.3482 14.46176386452402
ORBCOMM FM06            
1 25118U 97084G   25249.96334126  .00002527  00000+0  73769-3 0  9991
2 25118  45.0150 334.9993 0003246 244.4906 286.5720 14.46324337453366
ORBCOMM FM07            
1 25119U 97084H   25249.32216853  .00002395  00000+0  70101-3 0  9998
2 25119  45.0146 338.8439 0005071 246.8478 113.1840 14.46329926453264
ORBCOMM FM03            
1 25158U 98007B   25249.91860497  .00001600  00000+0  60478-3 0  9995
2 25158 107.9661 303.5262 0043058 107.1962 253.3898 14.34673438435766
ORBCOMM FM04            
1 25159U 98007C   25249.88881330  .00001694  00000+0  63560-3 0  9999
2 25159 107.9640 306.7411 0038755 104.6867 255.8574 14.34919675435943
ORBCOMM FM17            
1 25413U 98046A   25249.63497992  .00001380  00000+0  52677-3 0  9994
2 25413  44.9934 233.1760 0004941 276.0529  83.9755 14.35233642414875
ORBCOMM FM18            
1 25414U 98046B   25249.87570012  .00001910  00000+0  66201-3 0  9993
2 25414  44.9918 147.2414 0005866 339.4816  20.5796 14.38749588416013
ORBCOMM FM19            
1 25415U 98046C   25249.84911682  .00002063  00000+0  71393-3 0  9991
2 25415  44.9929 149.4942 0004647 336.1550 105.7472 14.38562034415960
