<?xml version="1.0" encoding="UTF-8"?>
<ndm xmlns:xsi="http://www.w3.org/2001/XMLSchema-instance" xsi:noNamespaceSchemaLocation="https://sanaregistry.org/r/ndmxml_unqualified/ndmxml-2.0.0-master-2.0.xsd">
<omm id="CCSDS_OMM_VERS" version="2.0">
<header><CREATION_DATE/><ORIGINATOR/></header><body><segment><metadata><OBJECT_NAME>ORBCOMM FM05</OBJECT_NAME><OBJECT_ID>1997-084F</OBJECT_ID><CENTER_NAME>EARTH</CENTER_NAME><REF_FRAME>TEME</REF_FRAME><TIME_SYSTEM>UTC</TIME_SYSTEM><MEAN_ELEMENT_THEORY>SGP4</MEAN_ELEMENT_THEORY></metadata><data><meanElements><EPOCH>2025-09-06T16:04:48.573696</EPOCH><MEAN_MOTION>14.46176386</MEAN_MOTION><ECCENTRICITY>.00042169</ECCENTRICITY><INCLINATION>45.0158</INCLINATION><RA_OF_ASC_NODE>336.7621</RA_OF_ASC_NODE><ARG_OF_PERICENTER>248.6919</ARG_OF_PERICENTER><MEAN_ANOMALY>111.3482</MEAN_ANOMALY></meanElements><tleParameters><EPHEMERIS_TYPE>0</EPHEMERIS_TYPE><CLASSIFICATION_TYPE>U</CLASSIFICATION_TYPE><NORAD_CAT_ID>25117</NORAD_CAT_ID><ELEMENT_SET_NO>999</ELEMENT_SET_NO><REV_AT_EPOCH>45240</REV_AT_EPOCH><BSTAR>.65007733E-3</BSTAR><MEAN_MOTION_DOT>.2202E-4</MEAN_MOTION_DOT><MEAN_MOTION_DDOT>0</MEAN_MOTION_DDOT></tleParameters></data></segment></body></omm>
<omm id="CCSDS_OMM_VERS" version="2.0">
<header><CREATION_DATE/><ORIGINATOR/></header><body><segment><metadata><OBJECT_NAME>ORBCOMM FM06</OBJECT_NAME><OBJECT_ID>1997-084G</OBJECT_ID><CENTER_NAME>EARTH</CENTER_NAME><REF_FRAME>TEME</REF_FRAME><TIME_SYSTEM>UTC</TIME_SYSTEM><MEAN_ELEMENT_THEORY>SGP4</MEAN_ELEMENT_THEORY></metadata><data><meanElements><EPOCH>2025-09-06T23:07:12.684864</EPOCH><MEAN_MOTION>14.46324337</MEAN_MOTION><ECCENTRICITY>.0003246</ECCENTRICITY><INCLINATION>45.0150</INCLINATION><RA_OF_ASC_NODE>334.9993</RA_OF_ASC_NODE><ARG_OF_PERICENTER>244.4906</ARG_OF_PERICENTER><MEAN_ANOMALY>286.5720</MEAN_ANOMALY></meanElements><tleParameters><EPHEMERIS_TYPE>0</EPHEMERIS_TYPE><CLASSIFICATION_TYPE>U</CLASSIFICATION_TYPE><NORAD_CAT_ID>25118</NORAD_CAT_ID><ELEMENT_SET_NO>999</ELEMENT_SET_NO><REV_AT_EPOCH>45336</REV_AT_EPOCH><BSTAR>.737692E-3</BSTAR><MEAN_MOTION_DOT>.2527E-4</MEAN_MOTION_DOT><MEAN_MOTION_DDOT>0</MEAN_MOTION_DDOT></tleParameters></data></segment></body></omm>
<omm id="CCSDS_OMM_VERS" version="2.0">
<header><CREATION_DATE/><ORIGINATOR/></header><body><segment><metadata><OBJECT_NAME>ORBCOMM FM07</OBJECT_NAME><OBJECT_ID>1997-084H</OBJECT_ID><CENTER_NAME>EARTH</CENTER_NAME><REF_FRAME>TEME</REF_FRAME><TIME_SYSTEM>UTC</TIME_SYSTEM><MEAN_ELEMENT_THEORY>SGP4</MEAN_ELEMENT_THEORY></metadata><data><meanElements><EPOCH>2025-09-06T07:43:55.360992</EPOCH><MEAN_MOTION>14.46329926</MEAN_MOTION><ECCENTRICITY>.00050717</ECCENTRICITY><INCLINATION>45.0146</INCLINATION><RA_OF_ASC_NODE>338.8439</RA_OF_ASC_NODE><ARG_OF_PERICENTER>246.8478</ARG_OF_PERICENTER><MEAN_ANOMALY>113.1840</MEAN_ANOMALY></meanElements><tleParameters><EPHEMERIS_TYPE>0</EPHEMERIS_TYPE><CLASSIFICATION_TYPE>U</CLASSIFICATION_TYPE><NORAD_CAT_ID>25119</NORAD_CAT_ID><ELEMENT_SET_NO>999</ELEMENT_SET_NO><REV_AT_EPOCH>45326</REV_AT_EPOCH><BSTAR>.70101426E-3</BSTAR><MEAN_MOTION_DOT>.2395E-4</MEAN_MOTION_DOT><MEAN_MOTION_DDOT>0</MEAN_MOTION_DDOT></tleParameters></data></segment></body></omm>
<omm id="CCSDS_OMM_VERS" version="2.0">
<header><CREATION_DATE/><ORIGINATOR/></header><body><segment><metadata><OBJECT_NAME>ORBCOMM FM03</OBJECT_NAME><OBJECT_ID>1998-007B</OBJECT_ID><CENTER_NAME>EARTH</CENTER_NAME><REF_FRAME>TEME</REF_FRAME><TIME_SYSTEM>UTC</TIME_SYSTEM><MEAN_ELEMENT_THEORY>SGP4</MEAN_ELEMENT_THEORY></metadata><data><meanElements><EPOCH>2025-09-06T22:02:47.469408</EPOCH><MEAN_MOTION>14.34673438</MEAN_MOTION><ECCENTRICITY>.00430582</ECCENTRICITY><INCLINATION>107.9661</INCLINATION><RA_OF_ASC_NODE>303.5262</RA_OF_ASC_NODE><ARG_OF_PERICENTER>107.1962</ARG_OF_PERICENTER><MEAN_ANOMALY>253.3898</MEAN_ANOMALY></meanElements><tleParameters><EPHEMERIS_TYPE>0</EPHEMERIS_TYPE><CLASSIFICATION_TYPE>U</CLASSIFICATION_TYPE><NORAD_CAT_ID>25158</NORAD_CAT_ID><ELEMENT_SET_NO>999</ELEMENT_SET_NO><REV_AT_EPOCH>43576</REV_AT_EPOCH><BSTAR>.60478441E-3</BSTAR><MEAN_MOTION_DOT>.16E-4</MEAN_MOTION_DOT><MEAN_MOTION_DDOT>0</MEAN_MOTION_DDOT></tleParameters></data></segment></body></omm>
<omm id="CCSDS_OMM_VERS" version="2.0">
<header><CREATION_DATE/><ORIGINATOR/></header><body><segment><metadata><OBJECT_NAME>ORBCOMM FM04</OBJECT_NAME><OBJECT_ID>1998-007C</OBJECT_ID><CENTER_NAME>EARTH</CENTER_NAME><REF_FRAME>TEME</REF_FRAME><TIME_SYSTEM>UTC</TIME_SYSTEM><MEAN_ELEMENT_THEORY>SGP4</MEAN_ELEMENT_THEORY></metadata><data><meanElements><EPOCH>2025-09-06T21:19:53.469120</EPOCH><MEAN_MOTION>14.34919675</MEAN_MOTION><ECCENTRICITY>.00387555</ECCENTRICITY><INCLINATION>107.9640</INCLINATION><RA_OF_ASC_NODE>306.7411</RA_OF_ASC_NODE><ARG_OF_PERICENTER>104.6867</ARG_OF_PERICENTER><MEAN_ANOMALY>255.8574</MEAN_ANOMALY></meanElements><tleParameters><EPHEMERIS_TYPE>0</EPHEMERIS_TYPE><CLASSIFICATION_TYPE>U</CLASSIFICATION_TYPE><NORAD_CAT_ID>25159</NORAD_CAT_ID><ELEMENT_SET_NO>999</ELEMENT_SET_NO><REV_AT_EPOCH>43594</REV_AT_EPOCH><BSTAR>.63560479E-3</BSTAR><MEAN_MOTION_DOT>.1694E-4</MEAN_MOTION_DOT><MEAN_MOTION_DDOT>0</MEAN_MOTION_DDOT></tleParameters></data></segment></body></omm>
<omm id="CCSDS_OMM_VERS" version="2.0">
<header><CREATION_DATE/><ORIGINATOR/></header><body><segment><metadata><OBJECT_NAME>ORBCOMM FM17</OBJECT_NAME><OBJECT_ID>1998-046A</OBJECT_ID><CENTER_NAME>EARTH</CENTER_NAME><REF_FRAME>TEME</REF_FRAME><TIME_SYSTEM>UTC</TIME_SYSTEM><MEAN_ELEMENT_THEORY>SGP4</MEAN_ELEMENT_THEORY></metadata><data><meanElements><EPOCH>2025-09-06T15:14:22.265088</EPOCH><MEAN_MOTION>14.35233642</MEAN_MOTION><ECCENTRICITY>.00049411</ECCENTRICITY><INCLINATION>44.9934</INCLINATION><RA_OF_ASC_NODE>233.1760</RA_OF_ASC_NODE><ARG_OF_PERICENTER>276.0529</ARG_OF_PERICENTER><MEAN_ANOMALY>83.9755</MEAN_ANOMALY></meanElements><tleParameters><EPHEMERIS_TYPE>0</EPHEMERIS_TYPE><CLASSIFICATION_TYPE>U</CLASSIFICATION_TYPE><NORAD_CAT_ID>25413</NORAD_CAT_ID><ELEMENT_SET_NO>999</ELEMENT_SET_NO><REV_AT_EPOCH>41487</REV_AT_EPOCH><BSTAR>.52676909E-3</BSTAR><MEAN_MOTION_DOT>.138E-4</MEAN_MOTION_DOT><MEAN_MOTION_DDOT>0</MEAN_MOTION_DDOT></tleParameters></data></segment></body></omm>
<omm id="CCSDS_OMM_VERS" version="2.0">
<header><CREATION_DATE/><ORIGINATOR/></header><body><segment><metadata><OBJECT_NAME>ORBCOMM FM18</OBJECT_NAME><OBJECT_ID>1998-046B</OBJECT_ID><CENTER_NAME>EARTH</CENTER_NAME><REF_FRAME>TEME</REF_FRAME><TIME_SYSTEM>UTC</TIME_SYSTEM><MEAN_ELEMENT_THEORY>SGP4</MEAN_ELEMENT_THEORY></metadata><data><meanElements><EPOCH>2025-09-06T21:01:00.490368</EPOCH><MEAN_MOTION>14.38749588</MEAN_MOTION><ECCENTRICITY>.00058663</ECCENTRICITY><INCLINATION>44.9918</INCLINATION><RA_OF_ASC_NODE>147.2414</RA_OF_ASC_NODE><ARG_OF_PERICENTER>339.4816</ARG_OF_PERICENTER><MEAN_ANOMALY>20.5796</MEAN_ANOMALY></meanElements><tleParameters><EPHEMERIS_TYPE>0</EPHEMERIS_TYPE><CLASSIFICATION_TYPE>U</CLASSIFICATION_TYPE><NORAD_CAT_ID>25414</NORAD_CAT_ID><ELEMENT_SET_NO>999</ELEMENT_SET_NO><REV_AT_EPOCH>41601</REV_AT_EPOCH><BSTAR>.66201274E-3</BSTAR><MEAN_MOTION_DOT>.191E-4</MEAN_MOTION_DOT><MEAN_MOTION_DDOT>0</MEAN_MOTION_DDOT></tleParameters></data></segment></body></omm>
<omm id="CCSDS_OMM_VERS" version="2.0">
<header><CREATION_DATE/><ORIGINATOR/></header><body><segment><metadata><OBJECT_NAME>ORBCOMM FM19</OBJECT_NAME><OBJECT_ID>1998-046C</OBJECT_ID><CENTER_NAME>EARTH</CENTER_NAME><REF_FRAME>TEME</REF_FRAME><TIME_SYSTEM>UTC</TIME_SYSTEM><MEAN_ELEMENT_THEORY>SGP4</MEAN_ELEMENT_THEORY></metadata><data><meanElements><EPOCH>2025-09-06T20:22:43.693248</EPOCH><MEAN_MOTION>14.38562034</MEAN_MOTION><ECCENTRICITY>.00046478</ECCENTRICITY><INCLINATION>44.9929</INCLINATION><RA_OF_ASC_NODE>149.4942</RA_OF_ASC_NODE><ARG_OF_PERICENTER>336.1550</ARG_OF_PERICENTER><MEAN_ANOMALY>105.7472</MEAN_ANOMALY></meanElements><tleParameters><EPHEMERIS_TYPE>0</EPHEMERIS_TYPE><CLASSIFICATION_TYPE>U</CLASSIFICATION_TYPE><NORAD_CAT_ID>25415</NORAD_CAT_ID><ELEMENT_SET_NO>999</ELEMENT_SET_NO><REV_AT_EPOCH>41596</REV_AT_EPOCH><BSTAR>.71393327E-3</BSTAR><MEAN_MOTION_DOT>.2063E-4</MEAN_MOTION_DOT><MEAN_MOTION_DDOT>0</MEAN_MOTION_DDOT></tleParameters></data></segment></body></omm>

</ndm>
